CCSDS_OMM_VERS = 2.0
CREATION_DATE  = 
ORIGINATOR     = 

OBJECT_NAME    = DELTA 2 R/B(1)
OBJECT_ID      = 1990-008B
CENTER_NAME    = EARTH
REF_FRAME      = TEME
TIME_SYSTEM    = UTC
MEAN_ELEMENT_THEORY = SGP/SGP4

EPOCH          = 2026-03-03T18:58:58.796256
MEAN_MOTION    = 15.55064062
ECCENTRICITY   = .0086769
INCLINATION    = 35.6039
RA_OF_ASC_NODE = 213.5409
ARG_OF_PERICENTER = 204.1361
MEAN_ANOMALY   = 155.5295

EPHEMERIS_TYPE = 0
CLASSIFICATION_TYPE = U
NORAD_CAT_ID   = 20453
ELEMENT_SET_NO = 999
REV_AT_EPOCH   = 92521
BSTAR          = .10724E-2
MEAN_MOTION_DOT = .89154E-3
MEAN_MOTION_DDOT = 0

CCSDS_OMM_VERS = 2.0
CREATION_DATE  = 
ORIGINATOR     = 

OBJECT_NAME    = COSMOS 2058
OBJECT_ID      = 1990-010A
CENTER_NAME    = EARTH
REF_FRAME      = TEME
TIME_SYSTEM    = UTC
MEAN_ELEMENT_THEORY = SGP/SGP4

EPOCH          = 2026-03-04T00:29:10.524480
MEAN_MOTION    = 15.11260178
ECCENTRICITY   = .0009785
INCLINATION    = 82.4666
RA_OF_ASC_NODE = 53.0131
ARG_OF_PERICENTER = 2.1639
MEAN_ANOMALY   = 357.9632

EPHEMERIS_TYPE = 0
CLASSIFICATION_TYPE = U
NORAD_CAT_ID   = 20465
ELEMENT_SET_NO = 999
REV_AT_EPOCH   = 94138
BSTAR          = .35395E-3
MEAN_MOTION_DOT = .5986E-4
MEAN_MOTION_DDOT = 0

CCSDS_OMM_VERS = 2.0
CREATION_DATE  = 
ORIGINATOR     = 

OBJECT_NAME    = SL-14 R/B
OBJECT_ID      = 1990-010B
CENTER_NAME    = EARTH
REF_FRAME      = TEME
TIME_SYSTEM    = UTC
MEAN_ELEMENT_THEORY = SGP/SGP4

EPOCH          = 2026-03-04T02:07:54.358176
MEAN_MOTION    = 14.83563470
ECCENTRICITY   = .0018892
INCLINATION    = 82.4992
RA_OF_ASC_NODE = 272.6512
ARG_OF_PERICENTER = 321.9134
MEAN_ANOMALY   = 38.0744

EPHEMERIS_TYPE = 0
CLASSIFICATION_TYPE = U
NORAD_CAT_ID   = 20466
ELEMENT_SET_NO = 999
REV_AT_EPOCH   = 92765
BSTAR          = .64601E-4
MEAN_MOTION_DOT = .557E-5
MEAN_MOTION_DDOT = 0

CCSDS_OMM_VERS = 2.0
CREATION_DATE  = 
ORIGINATOR     = 

OBJECT_NAME    = SL-14 R/B
OBJECT_ID      = 1990-018B
CENTER_NAME    = EARTH
REF_FRAME      = TEME
TIME_SYSTEM    = UTC
MEAN_ELEMENT_THEORY = SGP/SGP4

EPOCH          = 2026-03-03T21:34:11.281152
MEAN_MOTION    = 14.82137586
ECCENTRICITY   = .0017591
INCLINATION    = 82.5192
RA_OF_ASC_NODE = 228.5027
ARG_OF_PERICENTER = 109.6435
MEAN_ANOMALY   = 250.6679

EPHEMERIS_TYPE = 0
CLASSIFICATION_TYPE = U
NORAD_CAT_ID   = 20511
ELEMENT_SET_NO = 999
REV_AT_EPOCH   = 92172
BSTAR          = .88553E-4
MEAN_MOTION_DOT = .73E-5
MEAN_MOTION_DDOT = 0

CCSDS_OMM_VERS = 2.0
CREATION_DATE  = 
ORIGINATOR     = 

OBJECT_NAME    = HST
OBJECT_ID      = 1990-037B
CENTER_NAME    = EARTH
REF_FRAME      = TEME
TIME_SYSTEM    = UTC
MEAN_ELEMENT_THEORY = SGP/SGP4

EPOCH          = 2026-03-04T03:14:53.333664
MEAN_MOTION    = 15.29378725
ECCENTRICITY   = .0001725
INCLINATION    = 28.4703
RA_OF_ASC_NODE = 77.8870
ARG_OF_PERICENTER = 70.3509
MEAN_ANOMALY   = 289.7272

EPHEMERIS_TYPE = 0
CLASSIFICATION_TYPE = U
NORAD_CAT_ID   = 20580
ELEMENT_SET_NO = 999
REV_AT_EPOCH   = 77246
BSTAR          = .34382E-3
MEAN_MOTION_DOT = .10319E-3
MEAN_MOTION_DDOT = 0

CCSDS_OMM_VERS = 2.0
CREATION_DATE  = 
ORIGINATOR     = 

OBJECT_NAME    = SL-16 R/B
OBJECT_ID      = 1990-046B
CENTER_NAME    = EARTH
REF_FRAME      = TEME
TIME_SYSTEM    = UTC
MEAN_ELEMENT_THEORY = SGP/SGP4

EPOCH          = 2026-03-04T02:42:03.513888
MEAN_MOTION    = 14.15014486
ECCENTRICITY   = .0016154
INCLINATION    = 71.0000
RA_OF_ASC_NODE = 309.6278
ARG_OF_PERICENTER = 307.0897
MEAN_ANOMALY   = 52.8748

EPHEMERIS_TYPE = 0
CLASSIFICATION_TYPE = U
NORAD_CAT_ID   = 20625
ELEMENT_SET_NO = 999
REV_AT_EPOCH   = 84760
BSTAR          = -.68151E-4
MEAN_MOTION_DOT = -.18E-5
MEAN_MOTION_DDOT = 0

CCSDS_OMM_VERS = 2.0
CREATION_DATE  = 
ORIGINATOR     = 

OBJECT_NAME    = COSMOS 2084
OBJECT_ID      = 1990-055A
CENTER_NAME    = EARTH
REF_FRAME      = TEME
TIME_SYSTEM    = UTC
MEAN_ELEMENT_THEORY = SGP/SGP4

EPOCH          = 2026-03-04T03:26:01.728384
MEAN_MOTION    = 15.05610742
ECCENTRICITY   = .0017963
INCLINATION    = 62.7927
RA_OF_ASC_NODE = 354.4944
ARG_OF_PERICENTER = 188.7054
MEAN_ANOMALY   = 171.3737

EPHEMERIS_TYPE = 0
CLASSIFICATION_TYPE = U
NORAD_CAT_ID   = 20663
ELEMENT_SET_NO = 999
REV_AT_EPOCH   = 93548
BSTAR          = .30711E-3
MEAN_MOTION_DOT = .4266E-4
MEAN_MOTION_DDOT = 0

CCSDS_OMM_VERS = 2.0
CREATION_DATE  = 
ORIGINATOR     = 

OBJECT_NAME    = SL-6 R/B(2)
OBJECT_ID      = 1990-055D
CENTER_NAME    = EARTH
REF_FRAME      = TEME
TIME_SYSTEM    = UTC
MEAN_ELEMENT_THEORY = SGP/SGP4

EPOCH          = 2026-03-03T23:38:35.145600
MEAN_MOTION    = 15.03562591
ECCENTRICITY   = .0023883
INCLINATION    = 62.7818
RA_OF_ASC_NODE = 273.2508
ARG_OF_PERICENTER = 345.6258
MEAN_ANOMALY   = 14.4159

EPHEMERIS_TYPE = 0
CLASSIFICATION_TYPE = U
NORAD_CAT_ID   = 20666
ELEMENT_SET_NO = 999
REV_AT_EPOCH   = 93733
BSTAR          = .22256E-3
MEAN_MOTION_DOT = .2872E-4
MEAN_MOTION_DDOT = 0

CCSDS_OMM_VERS = 2.0
CREATION_DATE  = 
ORIGINATOR     = 

OBJECT_NAME    = SL-8 R/B
OBJECT_ID      = 1990-078B
CENTER_NAME    = EARTH
REF_FRAME      = TEME
TIME_SYSTEM    = UTC
MEAN_ELEMENT_THEORY = SGP/SGP4

EPOCH          = 2026-03-03T23:57:01.999584
MEAN_MOTION    = 14.88836115
ECCENTRICITY   = .0363616
INCLINATION    = 82.8989
RA_OF_ASC_NODE = 256.4302
ARG_OF_PERICENTER = 33.1204
MEAN_ANOMALY   = 329.2215

EPHEMERIS_TYPE = 0
CLASSIFICATION_TYPE = U
NORAD_CAT_ID   = 20775
ELEMENT_SET_NO = 999
REV_AT_EPOCH   = 80845
BSTAR          = .61063E-3
MEAN_MOTION_DOT = .20766E-3
MEAN_MOTION_DDOT = 0

CCSDS_OMM_VERS = 2.0
CREATION_DATE  = 
ORIGINATOR     = 

OBJECT_NAME    = SL-8 R/B
OBJECT_ID      = 1991-006B
CENTER_NAME    = EARTH
REF_FRAME      = TEME
TIME_SYSTEM    = UTC
MEAN_ELEMENT_THEORY = SGP/SGP4

EPOCH          = 2026-03-03T19:48:04.313952
MEAN_MOTION    = 13.77493424
ECCENTRICITY   = .0023378
INCLINATION    = 82.9464
RA_OF_ASC_NODE = 174.4054
ARG_OF_PERICENTER = 54.1372
MEAN_ANOMALY   = 64.7140

EPHEMERIS_TYPE = 0
CLASSIFICATION_TYPE = U
NORAD_CAT_ID   = 21088
ELEMENT_SET_NO = 999
REV_AT_EPOCH   = 76326
BSTAR          = .49724E-4
MEAN_MOTION_DOT = .65E-6
MEAN_MOTION_DDOT = 0

CCSDS_OMM_VERS = 2.0
CREATION_DATE  = 
ORIGINATOR     = 

OBJECT_NAME    = OKEAN-3
OBJECT_ID      = 1991-039A
CENTER_NAME    = EARTH
REF_FRAME      = TEME
TIME_SYSTEM    = UTC
MEAN_ELEMENT_THEORY = SGP/SGP4

EPOCH          = 2026-03-04T03:50:06.457344
MEAN_MOTION    = 15.04757132
ECCENTRICITY   = .0014281
INCLINATION    = 82.5199
RA_OF_ASC_NODE = 342.1995
ARG_OF_PERICENTER = 358.4141
MEAN_ANOMALY   = 1.7037

EPHEMERIS_TYPE = 0
CLASSIFICATION_TYPE = U
NORAD_CAT_ID   = 21397
ELEMENT_SET_NO = 999
REV_AT_EPOCH   = 86420
BSTAR          = .32427E-3
MEAN_MOTION_DOT = .4607E-4
MEAN_MOTION_DDOT = 0

CCSDS_OMM_VERS = 2.0
CREATION_DATE  = 
ORIGINATOR     = 

OBJECT_NAME    = COSMOS 2151
OBJECT_ID      = 1991-042A
CENTER_NAME    = EARTH
REF_FRAME      = TEME
TIME_SYSTEM    = UTC
MEAN_ELEMENT_THEORY = SGP/SGP4

EPOCH          = 2026-03-04T03:31:31.392768
MEAN_MOTION    = 15.00079549
ECCENTRICITY   = .0014118
INCLINATION    = 82.4928
RA_OF_ASC_NODE = 89.0243
ARG_OF_PERICENTER = 80.0933
MEAN_ANOMALY   = 280.1884

EPHEMERIS_TYPE = 0
CLASSIFICATION_TYPE = U
NORAD_CAT_ID   = 21422
ELEMENT_SET_NO = 999
REV_AT_EPOCH   = 86236
BSTAR          = .23676E-3
MEAN_MOTION_DOT = .2981E-4
MEAN_MOTION_DDOT = 0

